[
    {
        "Altitude(m)": 611965.2356418262,
        "Argument of Periapsis(deg)": 0.0,
        "Eccentricity": 0.0,
        "Inclination(deg)": 60.0,
        "Latitude(deg)": 59.14031399388216,
        "Longitude(deg)": 83.96976532738547,
        "Mean Anomaly(deg)": 81.8182,
        "RAAN(deg)": 110.00000000000001,
        "Satellite Name": "Test1 489",
        "Satellite Number": 489,
        "Semi-Major Axis(m)": 6980739.136638005,
        "Time(s)": 0
    },
    {
        "Altitude(m)": 611995.8612067266,
        "Argument of Periapsis(deg)": 0.00010418945913296404,
        "Eccentricity": 0.0,
        "Inclination(deg)": 60.0,
        "Latitude(deg)": 59.28341456899078,
        "Longitude(deg)": 85.10313227534336,
        "Mean Anomaly(deg)": 82.43830614546182,
        "RAAN(deg)": 109.99957995086025,
        "Satellite Name": "Test1 489",
        "Satellite Number": 489,
        "Semi-Major Axis(m)": 6980739.136638005,
        "Time(s)": 10
    }
]